SUPERBIRD-B3            
1 43271U 18033A   26178.40848690 -.00000080  00000+0  00000+0 0  9992
2 43271   0.0164 353.2395 0001180  96.9282 134.4092  1.00273140 30167
HYLAS 4                 
1 43272U 18033B   26178.44307682  .00000000  00000+0  00000+0 0  9999
2 43272   0.0277  20.4944 0001051  69.6698 311.3719  1.00262401 30161
YAOGAN-31 01A           
1 43275U 18034A   26178.54274684  .00000030  00000+0  16072-3 0  9992
2 43275  63.3956  64.6353 0276299   7.5024 353.0008 13.45463163403490
YAOGAN-31 01B           
1 43276U 18034B   26178.54396912  .00000036  00000+0  16955-3 0  9998
2 43276  63.3958  64.6392 0276313   7.4555 353.0451 13.45459033403618
YAOGAN-31 01C           
1 43277U 18034C   26178.54670148  .00000010  00000+0  13515-3 0  9996
2 43277  63.3968  63.9977 0276421   7.1737 353.3119 13.45445205403632
WEINA 1B                
1 43279U 18034E   26178.48458539 -.00000013  00000+0  10379-3 0  9998
2 43279  63.3962  65.3869 0276089   7.8790 352.6440 13.45372326403597
IRNSS-1I                
1 43286U 18035A   26175.79975266  .00000066  00000+0  00000+0 0  9992
2 43286  28.7725  74.0767 0017621 182.3144 359.3363  1.00275960 30158
USA 283                 
1 43339U 18036A   26176.40866242  .00000000  00000+0  00000+0 0  9992
2 43339   0.0077   1.2048 0000352  95.8048  97.7845  1.00269479 25372
COSMOS 2526             
1 43432U 18037A   26178.18993595 -.00000333  00000+0  00000+0 0  9996
2 43432   0.0331  81.5419 0000762 169.0548 221.1432  1.00271641 30067
SENTINEL-3B             
1 43437U 18039A   26178.14815586  .00000098  00000+0  58567-4 0  9995
2 43437  98.6246 245.5374 0000757 108.4761 251.6502 14.26737400425549
ZHUHAI-1 OVS-02         
1 43440U 18040B   26178.53268422  .00007416  00000+0  29835-3 0  9991
2 43440  97.0382 195.1489 0003005 184.5230 175.5983 15.25157579454293
ZHUHAI-1 OHS-02         
1 43441U 18040C   26178.51194490  .00007342  00000+0  28757-3 0  9993
2 43441  97.0366 202.0792 0009372 181.1453 178.9767 15.26025731115852
USA 285                 
1 43445U 18036E   26178.45118041  .00000051  00000+0  00000+0 0  9990
2 43445   7.1414  66.8305 0010575 167.6280  16.9173  1.02111940 27044
USA 286                 
1 43446U 18036F   26177.53686081 -.00000177  00000+0  00000+0 0  9993
2 43446   7.1367  66.8132 0010407 166.0089 118.4684  1.02123331 27013
APSTAR-6C               
1 43450U 18041A   26178.55114009 -.00000306  00000+0  00000+0 0  9997
2 43450   0.0211 357.6748 0000673  16.6351 233.7728  1.00270938 29913
GAOFEN-5 01             
1 43461U 18043A   26178.47448529  .00000337  00000+0  79395-4 0  9990
2 43461  98.4575 150.2770 0002877  65.1136 295.0363 14.60612308433195
BANGABANDHUSAT-1        
1 43463U 18044A   26178.41711498 -.00000351  00000+0  00000+0 0  9994
2 43463   0.0161  56.2014 0002082  43.9911  84.5986  1.00272104 29814
GRACE-FO 1              
1 43476U 18047A   26178.50419963  .00003795  00000+0  99360-4 0  9999
2 43476  88.9913 196.5352 0013721  75.2858 284.9917 15.38328173451386
GRACE-FO 2              
1 43477U 18047B   26178.50446655  .00003780  00000+0  98967-4 0  9994
2 43477  88.9913 196.5351 0013732  75.3303 284.9474 15.38325396451386
IRIDIUM 161             
1 43478U 18047C   26178.49928698  .00000290  00000+0  80260-4 0  9995
2 43478  86.4479  84.1599 0002515  81.7849 278.3637 14.43277631426626
IRIDIUM 152             
1 43479U 18047D   26178.49733994  .00000187  00000+0  59755-4 0  9999
2 43479  86.3955  84.0219 0002276  82.2490 277.8965 14.34218279423960
IRIDIUM 147             
1 43480U 18047E   26178.43391490  .00000031  00000+0  39297-5 0  9994
2 43480  86.3956  84.0537 0002168  87.3930 272.7514 14.34217752423959
IRIDIUM 110             
1 43481U 18047F   26178.44025809  .00000017  00000+0 -11525-5 0  9993
2 43481  86.3956  84.1430 0002360  78.1728 281.9732 14.34217530423947
IRIDIUM 162             
1 43482U 18047G   26178.28499584  .00000315  00000+0  87667-4 0  9990
2 43482  86.4481  84.1403 0002282  83.2674 276.8786 14.43279398426587
GAOFEN-6                
1 43484U 18048A   26178.50735714  .00000463  00000+0  74186-4 0  9992
2 43484  98.0895 241.1683 0011623 131.3639 228.8572 14.76374171434914
LUOJIA-1 01             
1 43485U 18048B   26178.53492760  .00001964  00000+0  22338-3 0  9995
2 43485  97.8108 256.5570 0010463  87.9793 272.2621 14.87322290435750
SES-12                  
1 43488U 18049A   26178.46865647 -.00000257  00000+0  00000+0 0  9992
2 43488   0.0119  10.4018 0000387 247.7169 281.1702  1.00270375 29522
FENGYUN 2H              
1 43491U 18050A   26178.46553647 -.00000120  00000+0  00000+0 0  9991
2 43491   3.0579  78.9606 0001691 122.5338 321.0079  1.00269800 29542
COSMOS 2527 [GLONASS-M] 
1 43508U 18053A   26177.00066066 -.00000062  00000+0  00000+0 0  9991
2 43508  65.5828  73.6132 0006873 236.8993 123.0709  2.13102108 62460
PAKTES 1A               
1 43529U 18056A   26178.48395900  .00001228  00000+0  10598-3 0  9993
2 43529  98.1277 335.4098 0021110  74.4470 285.9080 14.99137715433461
PRSS-1                  
1 43530U 18056B   26178.52010157  .00000585  00000+0  80179-4 0  9996
2 43530  97.7822 246.1040 0001499  74.7765 285.3614 14.82002954429962
