OBJECT_NAME,OBJECT_ID,EPOCH,MEAN_MOTION,ECCENTRICITY,INCLINATION,RA_OF_ASC_NODE,ARG_OF_PERICENTER,MEAN_ANOMALY,EPHEMERIS_TYPE,CLASSIFICATION_TYPE,NORAD_CAT_ID,ELEMENT_SET_NO,REV_AT_EPOCH,BSTAR,MEAN_MOTION_DOT,MEAN_MOTION_DDOT
SUPERBIRD-B3,2018-033A,2026-06-27T09:48:13.268160,1.00273140,.000118,0.0164,353.2395,96.9282,134.4092,0,U,43271,999,3016,0,-.8E-6,0
HYLAS 4,2018-033B,2026-06-27T10:38:01.837248,1.00262401,.0001051,0.0277,20.4944,69.6698,311.3719,0,U,43272,999,3016,0,0,0
YAOGAN-31 01A,2018-034A,2026-06-27T13:01:33.326976,13.45463163,.0276299,63.3956,64.6353,7.5024,353.0008,0,U,43275,999,40349,.16072E-3,.3E-6,0
YAOGAN-31 01B,2018-034B,2026-06-27T13:03:18.931968,13.45459033,.0276313,63.3958,64.6392,7.4555,353.0451,0,U,43276,999,40361,.16955E-3,.36E-6,0
YAOGAN-31 01C,2018-034C,2026-06-27T13:07:15.007872,13.45445205,.0276421,63.3968,63.9977,7.1737,353.3119,0,U,43277,999,40363,.13515E-3,.1E-6,0
WEINA 1B,2018-034E,2026-06-27T11:37:48.177696,13.45372326,.0276089,63.3962,65.3869,7.8790,352.6440,0,U,43279,999,40359,.10379E-3,-.13E-6,0
IRNSS-1I,2018-035A,2026-06-24T19:11:38.629824,1.00275960,.00176215,28.7725,74.0767,182.3144,359.3363,0,U,43286,999,3015,0,.66E-6,0
USA 283,2018-036A,2026-06-25T09:48:28.433088,1.00269479,.0000352,0.0077,1.2048,95.8048,97.7845,0,U,43339,999,2537,0,0,0
COSMOS 2526,2018-037A,2026-06-27T04:33:30.466080,1.00271641,.0000762,0.0331,81.5419,169.0548,221.1432,0,U,43432,999,3006,0,-.333E-5,0
SENTINEL-3B,2018-039A,2026-06-27T03:33:20.666304,14.26737400,.00007571,98.6246,245.5374,108.4761,251.6502,0,U,43437,999,42554,.58567144E-4,.98E-6,0
ZHUHAI-1 OVS-02,2018-040B,2026-06-27T12:47:03.916608,15.25157579,.0003005,97.0382,195.1489,184.5230,175.5983,0,U,43440,999,45429,.29835E-3,.7416E-4,0
ZHUHAI-1 OHS-02,2018-040C,2026-06-27T12:17:12.039360,15.26025731,.0009372,97.0366,202.0792,181.1453,178.9767,0,U,43441,999,11585,.28757E-3,.7342E-4,0
USA 285,2018-036E,2026-06-27T10:49:41.987424,1.02111940,.0010575,7.1414,66.8305,167.6280,16.9173,0,U,43445,999,2704,0,.51E-6,0
USA 286,2018-036F,2026-06-26T12:53:04.773984,1.02123331,.00104074,7.1367,66.8132,166.0089,118.4684,0,U,43446,999,2701,0,-.177E-5,0
APSTAR-6C,2018-041A,2026-06-27T13:13:38.503776,1.00270938,.0000673,0.0211,357.6748,16.6351,233.7728,0,U,43450,999,2991,0,-.306E-5,0
GAOFEN-5 01,2018-043A,2026-06-27T11:23:15.529056,14.60612308,.0002877,98.4575,150.2770,65.1136,295.0363,0,U,43461,999,43319,.79395E-4,.337E-5,0
BANGABANDHUSAT-1,2018-044A,2026-06-27T10:00:38.734272,1.00272104,.0002082,0.0161,56.2014,43.9911,84.5986,0,U,43463,999,2981,0,-.351E-5,0
GRACE-FO 1,2018-047A,2026-06-27T12:06:02.848032,15.38328173,.0013721,88.9913,196.5352,75.2858,284.9917,0,U,43476,999,45138,.9936E-4,.3795E-4,0
GRACE-FO 2,2018-047B,2026-06-27T12:06:25.909920,15.38325396,.0013732,88.9913,196.5351,75.3303,284.9474,0,U,43477,999,45138,.98967E-4,.378E-4,0
IRIDIUM 161,2018-047C,2026-06-27T11:58:58.395072,14.43277631,.0002515,86.4479,84.1599,81.7849,278.3637,0,U,43478,999,42662,.8026E-4,.29E-5,0
IRIDIUM 152,2018-047D,2026-06-27T11:56:10.170816,14.34218279,.0002276,86.3955,84.0219,82.2490,277.8965,0,U,43479,999,42396,.59755E-4,.187E-5,0
IRIDIUM 147,2018-047E,2026-06-27T10:24:50.247360,14.34217752,.0002168,86.3956,84.0537,87.3930,272.7514,0,U,43480,999,42395,.39297E-5,.31E-6,0
IRIDIUM 110,2018-047F,2026-06-27T10:33:58.298976,14.34217530,.000236,86.3956,84.1430,78.1728,281.9732,0,U,43481,999,42394,-.11525E-5,.17E-6,0
IRIDIUM 162,2018-047G,2026-06-27T06:50:23.640576,14.43279398,.0002282,86.4481,84.1403,83.2674,276.8786,0,U,43482,999,42658,.87667E-4,.315E-5,0
GAOFEN-6,2018-048A,2026-06-27T12:10:35.656896,14.76374171,.0011623,98.0895,241.1683,131.3639,228.8572,0,U,43484,999,43491,.74186E-4,.463E-5,0
LUOJIA-1 01,2018-048B,2026-06-27T12:50:17.744640,14.87322290,.0010463,97.8108,256.5570,87.9793,272.2621,0,U,43485,999,43575,.22338E-3,.1964E-4,0
SES-12,2018-049A,2026-06-27T11:14:51.919008,1.00270375,.0000387,0.0119,10.4018,247.7169,281.1702,0,U,43488,999,2952,0,-.257E-5,0
FENGYUN 2H,2018-050A,2026-06-27T11:10:22.351008,1.00269800,.0001691,3.0579,78.9606,122.5338,321.0079,0,U,43491,999,2954,0,-.12E-5,0
COSMOS 2527 [GLONASS-M],2018-053A,2026-06-26T00:00:57.081024,2.13102108,.00068737,65.5828,73.6132,236.8993,123.0709,0,U,43508,999,6246,0,-.62E-6,0
PAKTES 1A,2018-056A,2026-06-27T11:36:54.057600,14.99137715,.002111,98.1277,335.4098,74.4470,285.9080,0,U,43529,999,43346,.10598E-3,.1228E-4,0
PRSS-1,2018-056B,2026-06-27T12:28:56.775648,14.82002954,.0001499,97.7822,246.1040,74.7765,285.3614,0,U,43530,999,42996,.80179E-4,.585E-5,0
